- id: gps-38833
  name: NAVSTAR 67 (USA 239)
  allegiance: friendly
  components:
    - kind: space_orbit
      data:
        line1: "1 38833U 12053A   26086.05261588 -.00000004  00000+0  00000+0 0  9996"
        line2: "2 38833  53.5685 146.9649 0177237  64.9128 296.9786  2.00566077 97797"
        fov_half_angle_deg: 5.0
    - kind: symbol
      data:
        sidc_template:
          version: "10"
          context: reality
          standard_identity: friend
          symbol_set: space
          status: present
          hqtfd: not_applicable
          amplifier: unspecified
          entity: code_110700
          modifier_one: code_02
          modifier_two: code_00
